1 20253U 89077A   26083.59362492 -.00000371  00000-0  00000-0 0  9994
2 20253  12.4448 351.6715 0008180 354.9387 174.8649  1.00277134259719
1 20776U 90079A   26083.84345713  .00000121  00000-0  00000-0 0  9995
2 20776  13.3669 350.3891 0003726  10.9698 157.9441  1.00270318130043
1 22787U 93056A   26082.96016944  .00000122  00000-0  00000-0 0  9991
2 22787  11.8656   4.0176 0009101 343.5316 208.1902  1.00272924117692
1 23467U 95003A   26083.60183726 -.00000025  00000-0  00000-0 0  9999
2 23467   9.6880  13.5060 0003759 354.3844 203.2913  1.00276509114102
1 23967U 96042A   26083.11758459 -.00000246  00000-0  00000-0 0  9990
2 23967  11.0357  17.5381 0003501  97.5312  77.7597  1.00240326108635
1 25639U 99009B   26082.38554174  .00000047  00000-0  00000-0 0  9998
2 25639  12.0162   9.5613 0003398 289.1166 254.3105  0.99026128 50304
1 25967U 99063A   26083.19044764 -.00000193  00000-0  00000+0 0  9993
2 25967   9.8450  27.6528 0004776 313.3077 246.3739  1.00269652 96498
1 27168U 02001A   26083.05605102  .00000095  00000-0  00000-0 0  9999
2 27168  11.0794  22.4139 0099677   5.6029 192.7165  1.00277128 32104
1 28117U 03057A   26083.89047370 -.00000110  00000-0  00000-0 0  9994
2 28117   8.8794  34.2311 0003217 313.0705 231.0503  1.00272280 81604
1 30794U 07007B   26083.92697373 -.00000279  00000-0  00000-0 0  9991
2 30794   5.0870  74.7527 0004047 302.5283 234.0140  1.00270199 69856
1 32294U 07056B   26083.69915800  .00000133  00000-0  00000-0 0  9992
2 32294   5.0375  74.4988 0003941 291.1969  93.2474  1.00274549 67358
1 35943U 09054B   26083.93516742  .00000014  00000-0  00000-0 0  9993
2 35943   0.0340  89.6565 0003709 288.6840 203.7362  1.00275788 60464
1 36582U 10021B   26083.91071074  .00000079  00000-0  00000-0 0  9992
2 36582   0.0142 187.4917 0002541 184.4700 151.4302  1.00271680 58112
1 38098U 12011A   26083.91136181 -.00000068  00000-0  00000-0 0  9997
2 38098   0.0169 127.0771 0001773 236.8142 218.6660  1.00271833  6342
1 39034U 12075A   26083.91859744  .00000090  00000-0  00000-0 0  9999
2 39034   0.0685 357.7323 0003649 357.3928 210.6747  1.00270772 48318
1 40296U 14069A   26082.93594645  .00000166  00000-0  00000-0 0  9997
2 40296  63.4590 223.7819 6680092 271.1154  19.1256  2.00582865 83522
1 44453U 19046A   26083.47696525 -.00000082  00000-0  00000-0 0  9994
2 44453  63.0543  61.6292 7048991 274.6172  15.0351  2.00618254 48641
1 45254U 20015A   26082.72478588 -.00000015  00000-0  00000-0 0  9992
2 45254  65.5227 328.0984 6885841 279.3339  14.7158  2.00603931 44579
1 52145U 22030A   26082.23598817  .00000265  00000-0  00000-0 0  9998
2 52145  62.6675 149.9930 6762486 272.9293  17.8122  2.00614458 29304
1 26635U 00080A   21013.46269075 0.00000000  00000-0  00000-0 0    09
2 26635   9.2857  29.8038 0014383 186.3086 173.6859  1.00273100    09
1 34810U 09020A   25358.93258989 0.00000000  00000-0  00000-0 0    06
2 34810   2.7881  81.1408 0004972 246.2147 113.7417  1.00270000    08
1 40614U 15022B   25359.93496764 0.00000000  00000-0  00000-0 0    00
2 40614   0.0160 108.2839 0003453 352.8976   7.0980  1.00270000    04
